[{"OBJECT_NAME":"XCUBE-1","OBJECT_ID":"2024-247Z","EPOCH":"2026-03-09T11:35:28.885344","MEAN_MOTION":15.27910558,"ECCENTRICITY":0.00052355,"INCLINATION":44.9938,"RA_OF_ASC_NODE":117.7807,"ARG_OF_PERICENTER":331.1499,"MEAN_ANOMALY":28.9094,"EPHEMERIS_TYPE":0,"CLASSIFICATION_TYPE":"U","NORAD_CAT_ID":62400,"ELEMENT_SET_NO":999,"REV_AT_EPOCH":6770,"BSTAR":0.00036224252,"MEAN_MOTION_DOT":9.773e-5,"MEAN_MOTION_DDOT":0},{"OBJECT_NAME":"STARLINK-35342","OBJECT_ID":"2025-243E","EPOCH":"2026-03-09T16:58:13.268064","MEAN_MOTION":15.3020522,"ECCENTRICITY":0.00010888,"INCLINATION":53.1573,"RA_OF_ASC_NODE":245.3681,"ARG_OF_PERICENTER":48.9697,"MEAN_ANOMALY":311.1397,"EPHEMERIS_TYPE":0,"CLASSIFICATION_TYPE":"U","NORAD_CAT_ID":66181,"ELEMENT_SET_NO":999,"REV_AT_EPOCH":2065,"BSTAR":0.00077066536,"MEAN_MOTION_DOT":0.00022539,"MEAN_MOTION_DDOT":0}]
